{"type":"FeatureCollection","features":[{"type":"Feature","properties":{"id":8,"name_kz":"Сарыарқа","name_ru":"Сарыарка (Казахский мелкосопочник)","type":"upland","elevation_m":1565},"geometry":{"type":"Point","coordinates":[70,48.5]}},{"type":"Feature","properties":{"id":10,"name_kz":"Түран ойпаты","name_ru":"Туранская низменность","type":"plain","elevation_m":50},"geometry":{"type":"Point","coordinates":[60,43]}},{"type":"Feature","properties":{"id":11,"name_kz":"Каспий маңы ойпаты","name_ru":"Прикаспийская низменность","type":"plain","elevation_m":-28},"geometry":{"type":"Point","coordinates":[52,47]}},{"type":"Feature","properties":{"id":15,"name_kz":"Үстірт","name_ru":"Устюрт (плато)","type":"plateau","elevation_m":340},"geometry":{"type":"Point","coordinates":[55,43.5]}},{"type":"Feature","properties":{"id":16,"name_kz":"Жалпақ Торғай","name_ru":"Тургайское плато","type":"plateau","elevation_m":310},"geometry":{"type":"Point","coordinates":[62.5,50]}}]}