{"type":"FeatureCollection","features":[{"type":"Feature","properties":{"id":1,"name_kz":"Сарыарқа","name_ru":"Сарыарка (Казахский мелкосопочник)","type":"upland","elevation_m":1565},"geometry":{"type":"Point","coordinates":[70,48.5]}},{"type":"Feature","properties":{"id":2,"name_kz":"Түран ойпаты","name_ru":"Туранская низменность","type":"plain","elevation_m":50},"geometry":{"type":"Point","coordinates":[60,43]}},{"type":"Feature","properties":{"id":3,"name_kz":"Каспий маңы ойпаты","name_ru":"Прикаспийская низменность","type":"plain","elevation_m":-28},"geometry":{"type":"Point","coordinates":[52,47]}},{"type":"Feature","properties":{"id":4,"name_kz":"Үстірт","name_ru":"Устюрт (плато)","type":"plateau","elevation_m":340},"geometry":{"type":"Point","coordinates":[55,43.5]}},{"type":"Feature","properties":{"id":5,"name_kz":"Жалпақ Торғай","name_ru":"Тургайское плато","type":"plateau","elevation_m":310},"geometry":{"type":"Point","coordinates":[62.5,50]}}]}